STARLINK-1980
1 17578C 21009AG  21326.09703464  .00008015  00000-0  53690-3 0  3264
2 17578  53.0536 223.2981 0002063  73.1704  28.1372 15.06399084    14
